BEIDOU 3 (C01)          
1 36287U 10001A   22152.85565662 -.00000271  00000+0  00000+0 0  9992
2 36287   1.8586  47.3398 0004269  22.7049 268.7390  1.00273819 45358
BEIDOU 5 (C06)          
1 36828U 10036A   22153.73858970 -.00000052  00000+0  00000+0 0  9993
2 36828  54.1907 176.3628 0027964 191.7280 254.2616  1.00250330 43438
BEIDOU 6 (C04)          
1 37210U 10057A   22153.82479931 -.00000103  00000+0  00000+0 0  9995
2 37210   0.8264  45.7400 0002624 131.9776 170.4978  1.00271897 42482
BEIDOU 7 (C07)          
1 37256U 10068A   22152.79109720 -.00000204  00000+0  00000+0 0  9990
2 37256  50.2406 289.8328 0021012 183.3989 168.1428  1.00254437 41987
BEIDOU 8 (C08)          
1 37384U 11013A   22153.57685001 -.00000194  00000+0  00000+0 0  9999
2 37384  60.2708  54.4070 0017732 187.4752 323.7911  1.00259911 40877
BEIDOU 9 (C09)          
1 37763U 11038A   22153.74504686 -.00000015  00000+0  00000+0 0  9997
2 37763  54.4748 178.8537 0097877 227.9616 207.6295  1.00282394 39855
BEIDOU 10 (C10)         
1 37948U 11073A   22153.84405729 -.00000143  00000+0  00000+0 0  9992
2 37948  50.3549 289.4571 0079702 216.7828 142.0216  1.00256444 38603
BEIDOU 11 (C05)         
1 38091U 12008A   22153.85525684  .00000066  00000+0  00000+0 0  9998
2 38091   1.5328  67.3677 0014707 336.2492 214.3185  1.00268256 37684
BEIDOU 12 (C11)         
1 38250U 12018A   22153.37827104 -.00000091  00000+0  00000+0 0  9994
2 38250  56.6991 354.0564 0020124 254.6962 288.6841  1.86234290 68800
BEIDOU 13 (C12)         
1 38251U 12018B   22153.35549341 -.00000091  00000+0  00000+0 0  9997
2 38251  56.6169 353.3814 0010923 256.8772 315.4604  1.86234313 68809
BEIDOU 15 (C14)         
1 38775U 12050B   22153.61109681  .00000011  00000+0  00000+0 0  9993
2 38775  55.3926 112.1837 0015548 321.6404 258.3932  1.86231309 66184
BEIDOU 16 (C02)         
1 38953U 12059A   22153.59779264 -.00000165  00000+0  00000+0 0  9998
2 38953   1.9527  84.3985 0012068 301.5983 164.2217  1.00268905 35256
BEIDOU 17 (C31)         
1 40549U 15019A   22153.29789856 -.00000157  00000+0  00000+0 0  9997
2 40549  51.9125 312.9295 0036186 192.8040 302.9803  1.00300019 26283
BEIDOU 18 (C57)         
1 40748U 15037A   22152.68875815 -.00000095  00000+0  00000+0 0  9992
2 40748  55.8685 352.2812 0005377  36.2309 358.5223  1.86233212 46624
BEIDOU 19 (C58)         
1 40749U 15037B   22153.76182711 -.00000090  00000+0  00000+0 0  9994
2 40749  55.8729 352.2338 0004548 357.8947 170.8919  1.86232114 46634
BEIDOU 20 (C18)         
1 40938U 15053A   22153.27419141 -.00000127  00000+0  00000+0 0  9999
2 40938  51.5247 276.0486 0044505 195.4567 330.8164  1.00296001 24558
BEIDOU IGSO-6 (C13)     
1 41434U 16021A   22153.70188150 -.00000168  00000+0  00000+0 0  9993
2 41434  58.0804  52.9891 0044183 219.1337 327.0271  1.00285835 22685
BEIDOU-2 G7 (C03)       
1 41586U 16037A   22153.67442803 -.00000345  00000+0  00000+0 0  9999
2 41586   1.9474  69.6782 0008723   6.4158 168.2282  1.00265735 21992
BEIDOU-3 M1 (C19)       
1 43001U 17069A   22153.04813109  .00000005  00000+0  00000+0 0  9993
2 43001  55.5458 112.2018 0012369 293.7496  65.0919  1.86231631 31104
BEIDOU-3 M2 (C20)       
1 43002U 17069B   22153.83240130  .00000014  00000+0  00000+0 0  9999
2 43002  55.5458 112.2105 0010441 311.5730 256.1366  1.86231249 31116
BEIDOU-3 M3 (C27)       
1 43107U 18003A   22153.02222855 -.00000095  00000+0  00000+0 0  9999
2 43107  55.3206 353.1934 0005950  56.9047 133.7279  1.86232434 29866
BEIDOU-3 M4 (C28)       
1 43108U 18003B   22153.17913455 -.00000095  00000+0  00000+0 0  9999
2 43108  55.3130 353.1768 0001634 260.4909  79.3183  1.86230856 29867
BEIDOU-3 M5 (C21)       
1 43207U 18018A   22153.11747926  .00000006  00000+0  00000+0 0  9998
2 43207  55.5068 112.3133 0007701 328.3178  31.5894  1.86231542 29258
BEIDOU-3 M6 (C22)       
1 43208U 18018B   22153.18410590  .00000007  00000+0  00000+0 0  9991
2 43208  55.5031 112.3157 0010276 303.3050  56.5503  1.86231548 29258
BEIDOU-3 M7 (C29)       
1 43245U 18029A   22153.15093089 -.00000094  00000+0  00000+0 0  9998
2 43245  55.2352 350.9593 0001395  58.1973 129.1331  1.86232557 28400
BEIDOU-3 M8 (C30)       
1 43246U 18029B   22153.08601354 -.00000094  00000+0  10000-3 0  9996
2 43246  55.2309 350.9915 0004786  12.5639 177.7588  1.86232748 28394
BEIDOU IGSO-7 (C16)     
1 43539U 18057A   22153.82935294 -.00000062  00000+0  00000+0 0  9997
2 43539  55.0737 175.8339 0049179 227.3411 257.5627  1.00262616 14361
BEIDOU-3 M9 (C23)       
1 43581U 18062A   22153.87469238  .00000017  00000+0  00000+0 0  9994
2 43581  54.2780 232.5829 0003849 267.6757 302.4021  1.86231833 26155
BEIDOU-3 M10 (C24)      
1 43582U 18062B   22153.83253046  .00000017  00000+0  00000+0 0  9999
2 43582  54.2789 232.5751 0004191   0.7067 272.8647  1.86232071 26159
BEIDOU-3 M11 (C25)      
1 43602U 18067A   22153.37283089  .00000021  00000+0  00000+0 0  9991
2 43602  54.3617 231.2040 0006652   7.1226 359.6894  1.86231684 25642
BEIDOU-3 M12 (C26)      
1 43603U 18067B   22153.50901932  .00000020  00000+0  00000+0 0  9990
2 43603  54.3587 231.1662 0003813 353.9031  14.5961  1.86231643 25669
BEIDOU-3 M13 (C32)      
1 43622U 18072A   22153.77355031  .00000012  00000+0  00000+0 0  9990
2 43622  55.4715 111.8471 0008786 291.4090 283.7575  1.86231622 25176
BEIDOU-3 M14 (C33)      
1 43623U 18072B   22153.50821214  .00000009  00000+0  00000+0 0  9999
2 43623  55.4735 111.8478 0006846 310.0439 177.4640  1.86231658 25177
BEIDOU-3 M15 (C34)      
1 43647U 18078A   22152.43713959 -.00000097  00000+0  10000-3 0  9991
2 43647  55.1282 351.1433 0006943  14.1006  10.8365  1.86232887 24669
BEIDOU-3 M16 (C35)      
1 43648U 18078B   22153.36003178 -.00000093  00000+0  00000+0 0  9991
2 43648  55.1264 351.1175 0005319  28.6265 162.8874  1.86232207 24698
BEIDOU-3 G1 (C59)       
1 43683U 18085A   22153.67688316 -.00000269  00000+0  00000+0 0  9990
2 43683   0.8763 168.3670 0003376 336.1021 130.3242  1.00268090 13269
BEIDOU-3 M17 (C36)      
1 43706U 18093A   22153.22588675  .00000020  00000+0  00000+0 0  9997
2 43706  54.3611 232.4907 0009928 270.7730  89.1898  1.86232065 24050
BEIDOU-3 M18 (C37)      
1 43707U 18093B   22153.72346355  .00000018  00000+0  00000+0 0  9997
2 43707  54.3627 232.4636 0007613 298.7366 126.0299  1.86232148 24059
BEIDOU-3 IGSO-1 (C38)   
1 44204U 19023A   22153.40834368 -.00000228  00000+0  00000+0 0  9999
2 44204  56.5374  53.1327 0018991 201.2360 261.7373  1.00262471 11564
BEIDOU-2 G8             
1 44231U 19027A   22153.83035641 -.00000239  00000+0  00000+0 0  9999
2 44231   0.8291  75.0961 0004288 123.2550 136.3202  1.00267811 11278
BEIDOU-3 IGSO-2 (C39)   
1 44337U 19035A   22153.84013001 -.00000069  00000+0  00000+0 0  9993
2 44337  55.1156 171.8541 0023313 198.6576 300.8210  1.00257139 10909
BEIDOU-3 M23 (C45)      
1 44542U 19061A   22153.69865679  .00000018  00000+0  00000+0 0  9992
2 44542  54.5872 232.6135 0007584 330.5334  29.5006  1.86231323 18313
BEIDOU-3 M24 (C46)      
1 44543U 19061B   22153.39146267  .00000020  00000+0  00000+0 0  9998
2 44543  54.5856 232.5929 0004931 319.4024 105.9572  1.86231612 18308
BEIDOU-3 IGSO-3         
1 44709U 19073A   22153.78868803 -.00000190  00000+0  00000+0 0  9994
2 44709  57.2886 296.5333 0022465 173.5168 183.3743  1.00260819  9659
BEIDOU-3 M21            
1 44793U 19078A   22152.80988589 -.00000096  00000+0  10000-3 0  9998
2 44793  54.9777 351.1538 0007143  19.2222 209.5396  1.86232221 17152
BEIDOU-3 M22            
1 44794U 19078B   22152.86937281 -.00000096  00000+0  00000+0 0  9993
2 44794  54.9530 351.1433 0005040  20.3739 159.9051  1.86232627 17150
BEIDOU-3 M19            
1 44864U 19090A   22153.38285816  .00000008  00000+0  00000+0 0  9995
2 44864  55.4060 112.0721 0018745 273.7994  85.2185  1.86231818 16743
BEIDOU-3 M20            
1 44865U 19090B   22153.24902422  .00000007  00000+0  00000+0 0  9999
2 44865  55.4094 112.1074 0017211 286.2582  72.9031  1.86231788 16718
BEIDOU-3 G2             
1 45344U 20017A   22153.56971595 -.00000133  00000+0  00000+0 0  9996
2 45344   2.0768 351.3227 0004353 107.2355  77.6077  1.00273152  8469
BEIDOU-3 G3             
1 45807U 20040A   22153.88584854 -.00000344  00000+0  00000+0 0  9993
2 45807   1.4748 302.8928 0005905 330.6721  47.1730  1.00267619  7284
